{
  "type": "FeatureCollection",
  "features": [
    {
      "type": "Feature",
      "properties": {
        "norad_id": 38867,
        "name": "INTELSAT 23 (IS-23)",
        "group": "intelsat",
        "lat": -0.030633853424620786,
        "lon": -36.682390212779175,
        "alt_km": 35784.255633225126,
        "timestamp": "2025-12-22T18:58:53.088685+00:00",
        "meta_object_name": "INTELSAT 23 (IS-23)",
        "meta_object_id": "2012-057A",
        "meta_epoch": "2025-12-22T05:16:38.623008",
        "meta_mean_motion": 1.00268901,
        "meta_eccentricity": 6.907e-05,
        "meta_inclination": 0.0197,
        "meta_ra_of_asc_node": 73.3146,
        "meta_arg_of_pericenter": 228.2232,
        "meta_mean_anomaly": 175.6669,
        "meta_ephemeris_type": 0,
        "meta_classification_type": "U",
        "meta_norad_cat_id": 38867,
        "meta_element_set_no": 999,
        "meta_rev_at_epoch": 4818,
        "meta_bstar": 0,
        "meta_mean_motion_dot": -2.63e-06,
        "meta_mean_motion_ddot": 0,
        "tle_line1": "1 38867U 12057A   25356.21989147 -.00000263  00000+0  00000+0 0  9999",
        "tle_line2": "2 38867   0.0197  73.3146 0000690 228.2232 175.6669  1.00268901 48189"
      },
      "geometry": {
        "type": "Point",
        "coordinates": [
          -36.682390212779175,
          -0.030633853424620786
        ]
      }
    },
    {
      "type": "Feature",
      "properties": {
        "norad_id": 39360,
        "name": "FM-6",
        "group": "intelsat",
        "lat": -0.019613474853588823,
        "lon": -99.8277124148511,
        "alt_km": 35785.1143983304,
        "timestamp": "2025-12-22T18:58:53.088697+00:00",
        "meta_object_name": "FM-6",
        "meta_object_id": "2013-058A",
        "meta_epoch": "2025-12-22T01:45:29.872224",
        "meta_mean_motion": 1.00269758,
        "meta_eccentricity": 0.00029051,
        "meta_inclination": 0.0111,
        "meta_ra_of_asc_node": 60.7431,
        "meta_arg_of_pericenter": 116.5751,
        "meta_mean_anomaly": 183.7792,
        "meta_ephemeris_type": 0,
        "meta_classification_type": "U",
        "meta_norad_cat_id": 39360,
        "meta_element_set_no": 999,
        "meta_rev_at_epoch": 4429,
        "meta_bstar": 0,
        "meta_mean_motion_dot": 5e-08,
        "meta_mean_motion_ddot": 0,
        "tle_line1": "1 39360U 13058A   25356.07326241  .00000005  00000+0  00000+0 0  9997",
        "tle_line2": "2 39360   0.0111  60.7431 0002905 116.5751 183.7792  1.00269758 44293"
      },
      "geometry": {
        "type": "Point",
        "coordinates": [
          -99.8277124148511,
          -0.019613474853588823
        ]
      }
    },
    {
      "type": "Feature",
      "properties": {
        "norad_id": 40271,
        "name": "INTELSAT 30 (IS-30)",
        "group": "intelsat",
        "lat": -0.03640612723081693,
        "lon": -78.77906600852161,
        "alt_km": 35794.703260186434,
        "timestamp": "2025-12-22T18:58:53.088709+00:00",
        "meta_object_name": "INTELSAT 30 (IS-30)",
        "meta_object_id": "2014-062A",
        "meta_epoch": "2025-12-22T00:43:42.863808",
        "meta_mean_motion": 1.00262497,
        "meta_eccentricity": 0.00015639,
        "meta_inclination": 0.0115,
        "meta_ra_of_asc_node": 23.9271,
        "meta_arg_of_pericenter": 51.8075,
        "meta_mean_anomaly": 290.9843,
        "meta_ephemeris_type": 0,
        "meta_classification_type": "U",
        "meta_norad_cat_id": 40271,
        "meta_element_set_no": 999,
        "meta_rev_at_epoch": 501,
        "meta_bstar": 0,
        "meta_mean_motion_dot": -1.28e-06,
        "meta_mean_motion_ddot": 0,
        "tle_line1": "1 40271U 14062A   25356.03035722 -.00000128  00000+0  00000+0 0  9990",
        "tle_line2": "2 40271   0.0115  23.9271 0001563  51.8075 290.9843  1.00262497  5010"
      },
      "geometry": {
        "type": "Point",
        "coordinates": [
          -78.77906600852161,
          -0.03640612723081693
        ]
      }
    },
    {
      "type": "Feature",
      "properties": {
        "norad_id": 40333,
        "name": "DIRECTV 14",
        "group": "intelsat",
        "lat": -0.014637724995391678,
        "lon": -82.91768951135174,
        "alt_km": 35787.38942240397,
        "timestamp": "2025-12-22T18:58:53.088720+00:00",
        "meta_object_name": "DIRECTV 14",
        "meta_object_id": "2014-078B",
        "meta_epoch": "2025-12-22T06:12:07.890624",
        "meta_mean_motion": 1.00270466,
        "meta_eccentricity": 2.611e-05,
        "meta_inclination": 0.0027,
        "meta_ra_of_asc_node": 68.5668,
        "meta_arg_of_pericenter": 62.0079,
        "meta_mean_anomaly": 314.3024,
        "meta_ephemeris_type": 0,
        "meta_classification_type": "U",
        "meta_norad_cat_id": 40333,
        "meta_element_set_no": 999,
        "meta_rev_at_epoch": 4027,
        "meta_bstar": 0,
        "meta_mean_motion_dot": -1.03e-06,
        "meta_mean_motion_ddot": 0,
        "tle_line1": "1 40333U 14078B   25356.25842466 -.00000103  00000+0  00000+0 0  9994",
        "tle_line2": "2 40333   0.0027  68.5668 0000261  62.0079 314.3024  1.00270466 40272"
      },
      "geometry": {
        "type": "Point",
        "coordinates": [
          -82.91768951135174,
          -0.014637724995391678
        ]
      }
    },
    {
      "type": "Feature",
      "properties": {
        "norad_id": 40663,
        "name": "DIRECTV 15",
        "group": "intelsat",
        "lat": -0.04759591693264316,
        "lon": -86.57500703384476,
        "alt_km": 35787.816245645736,
        "timestamp": "2025-12-22T18:58:53.088732+00:00",
        "meta_object_name": "DIRECTV 15",
        "meta_object_id": "2015-026A",
        "meta_epoch": "2025-12-22T05:49:42.774816",
        "meta_mean_motion": 1.00269251,
        "meta_eccentricity": 4.087e-05,
        "meta_inclination": 0.0237,
        "meta_ra_of_asc_node": 21.2324,
        "meta_arg_of_pericenter": 126.4087,
        "meta_mean_anomaly": 287.959,
        "meta_ephemeris_type": 0,
        "meta_classification_type": "U",
        "meta_norad_cat_id": 40663,
        "meta_element_set_no": 999,
        "meta_rev_at_epoch": 3868,
        "meta_bstar": 0,
        "meta_mean_motion_dot": 0,
        "meta_mean_motion_ddot": 0,
        "tle_line1": "1 40663U 15026A   25356.24285619  .00000000  00000+0  00000+0 0  9999",
        "tle_line2": "2 40663   0.0237  21.2324 0000408 126.4087 287.9590  1.00269251 38688"
      },
      "geometry": {
        "type": "Point",
        "coordinates": [
          -86.57500703384476,
          -0.04759591693264316
        ]
      }
    },
    {
      "type": "Feature",
      "properties": {
        "norad_id": 40664,
        "name": "SKY MEXICO-1",
        "group": "intelsat",
        "lat": -0.03699032689884771,
        "lon": -62.451897430670925,
        "alt_km": 35776.33457671942,
        "timestamp": "2025-12-22T18:58:53.088743+00:00",
        "meta_object_name": "SKY MEXICO-1",
        "meta_object_id": "2015-026B",
        "meta_epoch": "2025-12-22T06:13:05.254176",
        "meta_mean_motion": 1.00271238,
        "meta_eccentricity": 0.00023868,
        "meta_inclination": 0.0157,
        "meta_ra_of_asc_node": 359.5095,
        "meta_arg_of_pericenter": 288.2085,
        "meta_mean_anomaly": 177.8602,
        "meta_ephemeris_type": 0,
        "meta_classification_type": "U",
        "meta_norad_cat_id": 40664,
        "meta_element_set_no": 999,
        "meta_rev_at_epoch": 3868,
        "meta_bstar": 0,
        "meta_mean_motion_dot": -2.13e-06,
        "meta_mean_motion_ddot": 0,
        "tle_line1": "1 40664U 15026B   25356.25908859 -.00000213  00000+0  00000+0 0  9996",
        "tle_line2": "2 40664   0.0157 359.5095 0002386 288.2085 177.8602  1.00271238 38683"
      },
      "geometry": {
        "type": "Point",
        "coordinates": [
          -62.451897430670925,
          -0.03699032689884771
        ]
      }
    },
    {
      "type": "Feature",
      "properties": {
        "norad_id": 40874,
        "name": "INTELSAT 34 (IS-34)",
        "group": "intelsat",
        "lat": -0.009563809590254312,
        "lon": -39.17884434857752,
        "alt_km": 35788.84822817423,
        "timestamp": "2025-12-22T18:58:53.088755+00:00",
        "meta_object_name": "INTELSAT 34 (IS-34)",
        "meta_object_id": "2015-039A",
        "meta_epoch": "2025-12-22T05:24:38.582784",
        "meta_mean_motion": 1.00273719,
        "meta_eccentricity": 7.787e-05,
        "meta_inclination": 0.0116,
        "meta_ra_of_asc_node": 317.9969,
        "meta_arg_of_pericenter": 191.0981,
        "meta_mean_anomaly": 327.6105,
        "meta_ephemeris_type": 0,
        "meta_classification_type": "U",
        "meta_norad_cat_id": 40874,
        "meta_element_set_no": 999,
        "meta_rev_at_epoch": 3785,
        "meta_bstar": 0,
        "meta_mean_motion_dot": -2.63e-06,
        "meta_mean_motion_ddot": 0,
        "tle_line1": "1 40874U 15039A   25356.22544656 -.00000263  00000+0  00000+0 0  9996",
        "tle_line2": "2 40874   0.0116 317.9969 0000778 191.0981 327.6105  1.00273719 37855"
      },
      "geometry": {
        "type": "Point",
        "coordinates": [
          -39.17884434857752,
          -0.009563809590254312
        ]
      }
    }
  ]
}